LANDSAT 9               
1 49260U 21088A   23309.20994317  .00000981  00000+0  22790-3 0  9992
2 49260  98.2158  17.3135 0001167  90.2803 269.8529 14.57097905111925
